[{"OBJECT_NAME":"STARLINK-5954","OBJECT_ID":"2023-058B","EPOCH":"2026-03-09T23:18:39.687552","MEAN_MOTION":15.05646811,"ECCENTRICITY":0.00017981,"INCLINATION":97.6038,"RA_OF_ASC_NODE":71.5646,"ARG_OF_PERICENTER":87.3286,"MEAN_ANOMALY":272.8146,"EPHEMERIS_TYPE":0,"CLASSIFICATION_TYPE":"U","NORAD_CAT_ID":56318,"ELEMENT_SET_NO":999,"REV_AT_EPOCH":15789,"BSTAR":6.425381e-6,"MEAN_MOTION_DOT":3.2e-7,"MEAN_MOTION_DDOT":0},{"OBJECT_NAME":"USA 17","OBJECT_ID":"1986-014F","EPOCH":"2026-03-09T22:10:30.468864","MEAN_MOTION":13.73458775,"ECCENTRICITY":0.07946653,"INCLINATION":63.303,"RA_OF_ASC_NODE":12.8302,"ARG_OF_PERICENTER":113.8676,"MEAN_ANOMALY":254.7675,"EPHEMERIS_TYPE":0,"CLASSIFICATION_TYPE":"U","NORAD_CAT_ID":16625,"ELEMENT_SET_NO":999,"REV_AT_EPOCH":32918,"BSTAR":0.00045015572,"MEAN_MOTION_DOT":4.832e-5,"MEAN_MOTION_DDOT":0}]
